STARLINK-31496          
1 59211U 24046L   26068.46451435 -.00000153  00000+0  69601-5 0  9994
2 59211  53.1612 143.7061 0001181 111.8504 248.2622 15.30184886113185
TOMORROW-S1             
1 60479U 24149M   26068.72470524  .00008620  00000+0  28856-3 0  9996
2 60479  97.3791 149.6044 0001819 207.2040 152.9106 15.31198362 86867
